{
  "type": "FeatureCollection",
  "features": [
    {
      "type": "Feature",
      "properties": {
        "id": 1,
        "district_name": "Taplejung",
        "province": "Koshi",
        "region": "Mountain",
        "census_2021_population": 132000,
        "area_sq_km": 3646.0,
        "population_density": 36.2,
        "urban": false,
        "headquarters": "Taplejung"
      },
      "geometry": {
        "type": "Point",
        "coordinates": [
          87.6167,
          27.3333
        ]
      }
    },
    {
      "type": "Feature",
      "properties": {
        "id": 2,
        "district_name": "Panchthar",
        "province": "Koshi",
        "region": "Hill",
        "census_2021_population": 191000,
        "area_sq_km": 1241.0,
        "population_density": 153.9,
        "urban": false,
        "headquarters": "Phidim"
      },
      "geometry": {
        "type": "Point",
        "coordinates": [
          87.8333,
          27.1667
        ]
      }
    },
    {
      "type": "Feature",
      "properties": {
        "id": 3,
        "district_name": "Ilam",
        "province": "Koshi",
        "region": "Hill",
        "census_2021_population": 290000,
        "area_sq_km": 1703.0,
        "population_density": 170.3,
        "urban": false,
        "headquarters": "Ilam"
      },
      "geometry": {
        "type": "Point",
        "coordinates": [
          87.9167,
          26.9167
        ]
      }
    },
    {
      "type": "Feature",
      "properties": {
        "id": 4,
        "district_name": "Jhapa",
        "province": "Koshi",
        "region": "Terai",
        "census_2021_population": 998000,
        "area_sq_km": 1606.0,
        "population_density": 621.4,
        "urban": true,
        "headquarters": "Birtamod"
      },
      "geometry": {
        "type": "Point",
        "coordinates": [
          87.894,
          26.545
        ]
      }
    },
    {
      "type": "Feature",
      "properties": {
        "id": 5,
        "district_name": "Morang",
        "province": "Koshi",
        "region": "Terai",
        "census_2021_population": 1147000,
        "area_sq_km": 1855.0,
        "population_density": 618.3,
        "urban": true,
        "headquarters": "Biratnagar"
      },
      "geometry": {
        "type": "Point",
        "coordinates": [
          87.3333,
          26.6667
        ]
      }
    },
    {
      "type": "Feature",
      "properties": {
        "id": 6,
        "district_name": "Sunsari",
        "province": "Koshi",
        "region": "Terai",
        "census_2021_population": 934000,
        "area_sq_km": 1257.0,
        "population_density": 743.0,
        "urban": true,
        "headquarters": "Inaruwa"
      },
      "geometry": {
        "type": "Point",
        "coordinates": [
          87.1667,
          26.7167
        ]
      }
    },
    {
      "type": "Feature",
      "properties": {
        "id": 7,
        "district_name": "Dhankuta",
        "province": "Koshi",
        "region": "Hill",
        "census_2021_population": 163000,
        "area_sq_km": 891.0,
        "population_density": 182.9,
        "urban": false,
        "headquarters": "Dhankuta"
      },
      "geometry": {
        "type": "Point",
        "coordinates": [
          87.3333,
          26.9833
        ]
      }
    },
    {
      "type": "Feature",
      "properties": {
        "id": 8,
        "district_name": "Terhathum",
        "province": "Koshi",
        "region": "Hill",
        "census_2021_population": 101000,
        "area_sq_km": 679.0,
        "population_density": 148.7,
        "urban": false,
        "headquarters": "Myanglung"
      },
      "geometry": {
        "type": "Point",
        "coordinates": [
          87.55,
          27.1333
        ]
      }
    },
    {
      "type": "Feature",
      "properties": {
        "id": 9,
        "district_name": "Sankhuwasabha",
        "province": "Koshi",
        "region": "Mountain",
        "census_2021_population": 159000,
        "area_sq_km": 3480.0,
        "population_density": 45.7,
        "urban": false,
        "headquarters": "Khandbari"
      },
      "geometry": {
        "type": "Point",
        "coordinates": [
          87.17,
          27.65
        ]
      }
    },
    {
      "type": "Feature",
      "properties": {
        "id": 10,
        "district_name": "Bhojpur",
        "province": "Koshi",
        "region": "Hill",
        "census_2021_population": 153000,
        "area_sq_km": 1507.0,
        "population_density": 101.5,
        "urban": false,
        "headquarters": "Bhojpur"
      },
      "geometry": {
        "type": "Point",
        "coordinates": [
          87.05,
          27.1667
        ]
      }
    },
    {
      "type": "Feature",
      "properties": {
        "id": 11,
        "district_name": "Solukhumbu",
        "province": "Koshi",
        "region": "Mountain",
        "census_2021_population": 106000,
        "area_sq_km": 3312.0,
        "population_density": 32.0,
        "urban": false,
        "headquarters": "Salleri"
      },
      "geometry": {
        "type": "Point",
        "coordinates": [
          86.73,
          27.7
        ]
      }
    },
    {
      "type": "Feature",
      "properties": {
        "id": 12,
        "district_name": "Okhaldhunga",
        "province": "Koshi",
        "region": "Hill",
        "census_2021_population": 147000,
        "area_sq_km": 1074.0,
        "population_density": 136.9,
        "urban": false,
        "headquarters": "Okhaldhunga"
      },
      "geometry": {
        "type": "Point",
        "coordinates": [
          86.5,
          27.3167
        ]
      }
    },
    {
      "type": "Feature",
      "properties": {
        "id": 13,
        "district_name": "Khotang",
        "province": "Koshi",
        "region": "Hill",
        "census_2021_population": 206000,
        "area_sq_km": 1591.0,
        "population_density": 129.5,
        "urban": false,
        "headquarters": "Diktel"
      },
      "geometry": {
        "type": "Point",
        "coordinates": [
          86.8,
          27.2
        ]
      }
    },
    {
      "type": "Feature",
      "properties": {
        "id": 14,
        "district_name": "Udayapur",
        "province": "Koshi",
        "region": "Hill",
        "census_2021_population": 341000,
        "area_sq_km": 2063.0,
        "population_density": 165.3,
        "urban": false,
        "headquarters": "Gaighat"
      },
      "geometry": {
        "type": "Point",
        "coordinates": [
          86.67,
          26.85
        ]
      }
    },
    {
      "type": "Feature",
      "properties": {
        "id": 15,
        "district_name": "Saptari",
        "province": "Madhesh",
        "region": "Terai",
        "census_2021_population": 706000,
        "area_sq_km": 1363.0,
        "population_density": 518.0,
        "urban": true,
        "headquarters": "Rajbiraj"
      },
      "geometry": {
        "type": "Point",
        "coordinates": [
          86.75,
          26.6667
        ]
      }
    },
    {
      "type": "Feature",
      "properties": {
        "id": 16,
        "district_name": "Siraha",
        "province": "Madhesh",
        "region": "Terai",
        "census_2021_population": 637000,
        "area_sq_km": 1188.0,
        "population_density": 536.2,
        "urban": true,
        "headquarters": "Siraha"
      },
      "geometry": {
        "type": "Point",
        "coordinates": [
          86.2,
          26.65
        ]
      }
    },
    {
      "type": "Feature",
      "properties": {
        "id": 17,
        "district_name": "Dhanusha",
        "province": "Madhesh",
        "region": "Terai",
        "census_2021_population": 755000,
        "area_sq_km": 1180.0,
        "population_density": 639.8,
        "urban": true,
        "headquarters": "Janakpur"
      },
      "geometry": {
        "type": "Point",
        "coordinates": [
          85.9,
          26.8333
        ]
      }
    },
    {
      "type": "Feature",
      "properties": {
        "id": 18,
        "district_name": "Mahottari",
        "province": "Madhesh",
        "region": "Terai",
        "census_2021_population": 628000,
        "area_sq_km": 1002.0,
        "population_density": 626.7,
        "urban": true,
        "headquarters": "Jaleshwar"
      },
      "geometry": {
        "type": "Point",
        "coordinates": [
          85.83,
          26.9
        ]
      }
    },
    {
      "type": "Feature",
      "properties": {
        "id": 19,
        "district_name": "Sarlahi",
        "province": "Madhesh",
        "region": "Terai",
        "census_2021_population": 770000,
        "area_sq_km": 1259.0,
        "population_density": 611.6,
        "urban": true,
        "headquarters": "Malangwa"
      },
      "geometry": {
        "type": "Point",
        "coordinates": [
          85.57,
          27.0
        ]
      }
    },
    {
      "type": "Feature",
      "properties": {
        "id": 20,
        "district_name": "Rautahat",
        "province": "Madhesh",
        "region": "Terai",
        "census_2021_population": 687000,
        "area_sq_km": 1126.0,
        "population_density": 610.1,
        "urban": true,
        "headquarters": "Gaur"
      },
      "geometry": {
        "type": "Point",
        "coordinates": [
          85.33,
          26.95
        ]
      }
    },
    {
      "type": "Feature",
      "properties": {
        "id": 21,
        "district_name": "Bara",
        "province": "Madhesh",
        "region": "Terai",
        "census_2021_population": 743000,
        "area_sq_km": 1190.0,
        "population_density": 624.4,
        "urban": true,
        "headquarters": "Kalaiya"
      },
      "geometry": {
        "type": "Point",
        "coordinates": [
          85.05,
          27.1
        ]
      }
    },
    {
      "type": "Feature",
      "properties": {
        "id": 22,
        "district_name": "Parsa",
        "province": "Madhesh",
        "region": "Terai",
        "census_2021_population": 719000,
        "area_sq_km": 1353.0,
        "population_density": 531.4,
        "urban": true,
        "headquarters": "Birgunj"
      },
      "geometry": {
        "type": "Point",
        "coordinates": [
          84.87,
          27.0
        ]
      }
    },
    {
      "type": "Feature",
      "properties": {
        "id": 23,
        "district_name": "Dolakha",
        "province": "Bagmati",
        "region": "Hill",
        "census_2021_population": 186000,
        "area_sq_km": 2191.0,
        "population_density": 84.9,
        "urban": false,
        "headquarters": "Charikot"
      },
      "geometry": {
        "type": "Point",
        "coordinates": [
          86.0,
          27.67
        ]
      }
    },
    {
      "type": "Feature",
      "properties": {
        "id": 24,
        "district_name": "Sindhupalchok",
        "province": "Bagmati",
        "region": "Hill",
        "census_2021_population": 287000,
        "area_sq_km": 2542.0,
        "population_density": 112.9,
        "urban": false,
        "headquarters": "Chautara"
      },
      "geometry": {
        "type": "Point",
        "coordinates": [
          85.68,
          27.95
        ]
      }
    },
    {
      "type": "Feature",
      "properties": {
        "id": 25,
        "district_name": "Rasuwa",
        "province": "Bagmati",
        "region": "Mountain",
        "census_2021_population": 44000,
        "area_sq_km": 1544.0,
        "population_density": 28.5,
        "urban": false,
        "headquarters": "Syalja"
      },
      "geometry": {
        "type": "Point",
        "coordinates": [
          85.33,
          28.1
        ]
      }
    },
    {
      "type": "Feature",
      "properties": {
        "id": 26,
        "district_name": "Dhading",
        "province": "Bagmati",
        "region": "Hill",
        "census_2021_population": 337000,
        "area_sq_km": 1926.0,
        "population_density": 175.0,
        "urban": false,
        "headquarters": "Dhading Besi"
      },
      "geometry": {
        "type": "Point",
        "coordinates": [
          84.9,
          27.9
        ]
      }
    },
    {
      "type": "Feature",
      "properties": {
        "id": 27,
        "district_name": "Nuwakot",
        "province": "Bagmati",
        "region": "Hill",
        "census_2021_population": 278000,
        "area_sq_km": 1121.0,
        "population_density": 248.0,
        "urban": false,
        "headquarters": "Nuwakot"
      },
      "geometry": {
        "type": "Point",
        "coordinates": [
          85.15,
          27.92
        ]
      }
    },
    {
      "type": "Feature",
      "properties": {
        "id": 28,
        "district_name": "Kathmandu",
        "province": "Bagmati",
        "region": "Hill",
        "census_2021_population": 2041000,
        "area_sq_km": 395.0,
        "population_density": 5167.1,
        "urban": false,
        "headquarters": "Kathmandu"
      },
      "geometry": {
        "type": "Point",
        "coordinates": [
          85.324,
          27.7172
        ]
      }
    },
    {
      "type": "Feature",
      "properties": {
        "id": 29,
        "district_name": "Bhaktapur",
        "province": "Bagmati",
        "region": "Hill",
        "census_2021_population": 432000,
        "area_sq_km": 119.0,
        "population_density": 3630.3,
        "urban": false,
        "headquarters": "Bhaktapur"
      },
      "geometry": {
        "type": "Point",
        "coordinates": [
          85.43,
          27.67
        ]
      }
    },
    {
      "type": "Feature",
      "properties": {
        "id": 30,
        "district_name": "Lalitpur",
        "province": "Bagmati",
        "region": "Hill",
        "census_2021_population": 551000,
        "area_sq_km": 385.0,
        "population_density": 1431.2,
        "urban": false,
        "headquarters": "Lalitpur"
      },
      "geometry": {
        "type": "Point",
        "coordinates": [
          85.32,
          27.65
        ]
      }
    },
    {
      "type": "Feature",
      "properties": {
        "id": 31,
        "district_name": "Kavrepalanchok",
        "province": "Bagmati",
        "region": "Hill",
        "census_2021_population": 381000,
        "area_sq_km": 1396.0,
        "population_density": 272.9,
        "urban": false,
        "headquarters": "Dhulikhel"
      },
      "geometry": {
        "type": "Point",
        "coordinates": [
          85.55,
          27.63
        ]
      }
    },
    {
      "type": "Feature",
      "properties": {
        "id": 32,
        "district_name": "Ramechhap",
        "province": "Bagmati",
        "region": "Hill",
        "census_2021_population": 202000,
        "area_sq_km": 1546.0,
        "population_density": 130.7,
        "urban": false,
        "headquarters": "Manthali"
      },
      "geometry": {
        "type": "Point",
        "coordinates": [
          86.08,
          27.33
        ]
      }
    },
    {
      "type": "Feature",
      "properties": {
        "id": 33,
        "district_name": "Sindhuli",
        "province": "Bagmati",
        "region": "Hill",
        "census_2021_population": 300000,
        "area_sq_km": 2491.0,
        "population_density": 120.4,
        "urban": false,
        "headquarters": "Sindhulimadhi"
      },
      "geometry": {
        "type": "Point",
        "coordinates": [
          85.97,
          27.25
        ]
      }
    },
    {
      "type": "Feature",
      "properties": {
        "id": 34,
        "district_name": "Makwanpur",
        "province": "Bagmati",
        "region": "Hill",
        "census_2021_population": 466000,
        "area_sq_km": 2426.0,
        "population_density": 192.1,
        "urban": false,
        "headquarters": "Hetauda"
      },
      "geometry": {
        "type": "Point",
        "coordinates": [
          85.03,
          27.43
        ]
      }
    },
    {
      "type": "Feature",
      "properties": {
        "id": 35,
        "district_name": "Chitwan",
        "province": "Bagmati",
        "region": "Terai",
        "census_2021_population": 720000,
        "area_sq_km": 2238.0,
        "population_density": 321.7,
        "urban": true,
        "headquarters": "Bharatpur"
      },
      "geometry": {
        "type": "Point",
        "coordinates": [
          84.35,
          27.53
        ]
      }
    },
    {
      "type": "Feature",
      "properties": {
        "id": 36,
        "district_name": "Gorkha",
        "province": "Gandaki",
        "region": "Hill",
        "census_2021_population": 252000,
        "area_sq_km": 3610.0,
        "population_density": 69.8,
        "urban": false,
        "headquarters": "Gorkha"
      },
      "geometry": {
        "type": "Point",
        "coordinates": [
          84.63,
          28.0
        ]
      }
    },
    {
      "type": "Feature",
      "properties": {
        "id": 37,
        "district_name": "Manang",
        "province": "Gandaki",
        "region": "Mountain",
        "census_2021_population": 6000,
        "area_sq_km": 2246.0,
        "population_density": 2.7,
        "urban": false,
        "headquarters": "Chame"
      },
      "geometry": {
        "type": "Point",
        "coordinates": [
          84.02,
          28.67
        ]
      }
    },
    {
      "type": "Feature",
      "properties": {
        "id": 38,
        "district_name": "Mustang",
        "province": "Gandaki",
        "region": "Mountain",
        "census_2021_population": 14000,
        "area_sq_km": 3573.0,
        "population_density": 3.9,
        "urban": false,
        "headquarters": "Jomsom"
      },
      "geometry": {
        "type": "Point",
        "coordinates": [
          83.95,
          28.99
        ]
      }
    },
    {
      "type": "Feature",
      "properties": {
        "id": 39,
        "district_name": "Myagdi",
        "province": "Gandaki",
        "region": "Hill",
        "census_2021_population": 113000,
        "area_sq_km": 2297.0,
        "population_density": 49.2,
        "urban": false,
        "headquarters": "Beni"
      },
      "geometry": {
        "type": "Point",
        "coordinates": [
          83.57,
          28.35
        ]
      }
    },
    {
      "type": "Feature",
      "properties": {
        "id": 40,
        "district_name": "Kaski",
        "province": "Gandaki",
        "region": "Hill",
        "census_2021_population": 609000,
        "area_sq_km": 2017.0,
        "population_density": 301.9,
        "urban": false,
        "headquarters": "Pokhara"
      },
      "geometry": {
        "type": "Point",
        "coordinates": [
          83.99,
          28.21
        ]
      }
    },
    {
      "type": "Feature",
      "properties": {
        "id": 41,
        "district_name": "Lamjung",
        "province": "Gandaki",
        "region": "Hill",
        "census_2021_population": 168000,
        "area_sq_km": 1692.0,
        "population_density": 99.3,
        "urban": false,
        "headquarters": "Besisahar"
      },
      "geometry": {
        "type": "Point",
        "coordinates": [
          84.38,
          28.23
        ]
      }
    },
    {
      "type": "Feature",
      "properties": {
        "id": 42,
        "district_name": "Tanahun",
        "province": "Gandaki",
        "region": "Hill",
        "census_2021_population": 323000,
        "area_sq_km": 1546.0,
        "population_density": 208.9,
        "urban": false,
        "headquarters": "Damauli"
      },
      "geometry": {
        "type": "Point",
        "coordinates": [
          84.25,
          27.95
        ]
      }
    },
    {
      "type": "Feature",
      "properties": {
        "id": 43,
        "district_name": "Nawalpur",
        "province": "Gandaki",
        "region": "Terai",
        "census_2021_population": 311000,
        "area_sq_km": 1043.0,
        "population_density": 298.2,
        "urban": false,
        "headquarters": "Kawasoti"
      },
      "geometry": {
        "type": "Point",
        "coordinates": [
          84.13,
          27.65
        ]
      }
    },
    {
      "type": "Feature",
      "properties": {
        "id": 44,
        "district_name": "Syangja",
        "province": "Gandaki",
        "region": "Hill",
        "census_2021_population": 290000,
        "area_sq_km": 1164.0,
        "population_density": 249.1,
        "urban": false,
        "headquarters": "Bhairawa"
      },
      "geometry": {
        "type": "Point",
        "coordinates": [
          83.88,
          28.08
        ]
      }
    },
    {
      "type": "Feature",
      "properties": {
        "id": 45,
        "district_name": "Parbat",
        "province": "Gandaki",
        "region": "Hill",
        "census_2021_population": 146000,
        "area_sq_km": 494.0,
        "population_density": 295.5,
        "urban": false,
        "headquarters": "Kusma"
      },
      "geometry": {
        "type": "Point",
        "coordinates": [
          83.7,
          28.23
        ]
      }
    },
    {
      "type": "Feature",
      "properties": {
        "id": 46,
        "district_name": "Baglung",
        "province": "Gandaki",
        "region": "Hill",
        "census_2021_population": 269000,
        "area_sq_km": 1784.0,
        "population_density": 150.8,
        "urban": false,
        "headquarters": "Baglung"
      },
      "geometry": {
        "type": "Point",
        "coordinates": [
          83.6,
          28.27
        ]
      }
    },
    {
      "type": "Feature",
      "properties": {
        "id": 47,
        "district_name": "Rukum East",
        "province": "Lumbini",
        "region": "Hill",
        "census_2021_population": 53000,
        "area_sq_km": 1161.0,
        "population_density": 45.7,
        "urban": false,
        "headquarters": "Bhume"
      },
      "geometry": {
        "type": "Point",
        "coordinates": [
          82.6,
          28.63
        ]
      }
    },
    {
      "type": "Feature",
      "properties": {
        "id": 48,
        "district_name": "Rolpa",
        "province": "Lumbini",
        "region": "Hill",
        "census_2021_population": 224000,
        "area_sq_km": 1879.0,
        "population_density": 119.2,
        "urban": false,
        "headquarters": "Rolpa"
      },
      "geometry": {
        "type": "Point",
        "coordinates": [
          82.85,
          28.3
        ]
      }
    },
    {
      "type": "Feature",
      "properties": {
        "id": 49,
        "district_name": "Pyuthan",
        "province": "Lumbini",
        "region": "Hill",
        "census_2021_population": 228000,
        "area_sq_km": 1309.0,
        "population_density": 174.2,
        "urban": false,
        "headquarters": "Pyuthan"
      },
      "geometry": {
        "type": "Point",
        "coordinates": [
          82.87,
          28.1
        ]
      }
    },
    {
      "type": "Feature",
      "properties": {
        "id": 50,
        "district_name": "Gulmi",
        "province": "Lumbini",
        "region": "Hill",
        "census_2021_population": 246000,
        "area_sq_km": 1149.0,
        "population_density": 214.1,
        "urban": false,
        "headquarters": "Tamghas"
      },
      "geometry": {
        "type": "Point",
        "coordinates": [
          83.25,
          28.08
        ]
      }
    },
    {
      "type": "Feature",
      "properties": {
        "id": 51,
        "district_name": "Arghakhanchi",
        "province": "Lumbini",
        "region": "Hill",
        "census_2021_population": 197000,
        "area_sq_km": 1193.0,
        "population_density": 165.1,
        "urban": false,
        "headquarters": "Sandhikharka"
      },
      "geometry": {
        "type": "Point",
        "coordinates": [
          83.17,
          27.9
        ]
      }
    },
    {
      "type": "Feature",
      "properties": {
        "id": 52,
        "district_name": "Palpa",
        "province": "Lumbini",
        "region": "Hill",
        "census_2021_population": 246000,
        "area_sq_km": 1373.0,
        "population_density": 179.2,
        "urban": false,
        "headquarters": "Tansen"
      },
      "geometry": {
        "type": "Point",
        "coordinates": [
          83.55,
          27.87
        ]
      }
    },
    {
      "type": "Feature",
      "properties": {
        "id": 53,
        "district_name": "Rupandehi",
        "province": "Lumbini",
        "region": "Terai",
        "census_2021_population": 1115000,
        "area_sq_km": 1360.0,
        "population_density": 819.9,
        "urban": true,
        "headquarters": "Butwal"
      },
      "geometry": {
        "type": "Point",
        "coordinates": [
          83.45,
          27.5
        ]
      }
    },
    {
      "type": "Feature",
      "properties": {
        "id": 54,
        "district_name": "Kapilvastu",
        "province": "Lumbini",
        "region": "Terai",
        "census_2021_population": 572000,
        "area_sq_km": 1738.0,
        "population_density": 329.1,
        "urban": true,
        "headquarters": "Taulihawa"
      },
      "geometry": {
        "type": "Point",
        "coordinates": [
          83.05,
          27.55
        ]
      }
    },
    {
      "type": "Feature",
      "properties": {
        "id": 55,
        "district_name": "Dang",
        "province": "Lumbini",
        "region": "Terai",
        "census_2021_population": 675000,
        "area_sq_km": 2955.0,
        "population_density": 228.4,
        "urban": true,
        "headquarters": "Ghorahi"
      },
      "geometry": {
        "type": "Point",
        "coordinates": [
          82.48,
          28.03
        ]
      }
    },
    {
      "type": "Feature",
      "properties": {
        "id": 56,
        "district_name": "Banke",
        "province": "Lumbini",
        "region": "Terai",
        "census_2021_population": 614000,
        "area_sq_km": 2337.0,
        "population_density": 262.7,
        "urban": true,
        "headquarters": "Nepalgunj"
      },
      "geometry": {
        "type": "Point",
        "coordinates": [
          81.62,
          28.05
        ]
      }
    },
    {
      "type": "Feature",
      "properties": {
        "id": 57,
        "district_name": "Bardiya",
        "province": "Lumbini",
        "region": "Terai",
        "census_2021_population": 427000,
        "area_sq_km": 2025.0,
        "population_density": 210.9,
        "urban": false,
        "headquarters": "Gulariya"
      },
      "geometry": {
        "type": "Point",
        "coordinates": [
          81.37,
          28.3
        ]
      }
    },
    {
      "type": "Feature",
      "properties": {
        "id": 58,
        "district_name": "Parasi",
        "province": "Lumbini",
        "region": "Terai",
        "census_2021_population": 281000,
        "area_sq_km": 634.0,
        "population_density": 443.2,
        "urban": false,
        "headquarters": "Kawasoti"
      },
      "geometry": {
        "type": "Point",
        "coordinates": [
          83.67,
          27.52
        ]
      }
    },
    {
      "type": "Feature",
      "properties": {
        "id": 59,
        "district_name": "Dolpa",
        "province": "Karnali",
        "region": "Mountain",
        "census_2021_population": 43000,
        "area_sq_km": 7889.0,
        "population_density": 5.5,
        "urban": false,
        "headquarters": "Dunai"
      },
      "geometry": {
        "type": "Point",
        "coordinates": [
          83.08,
          29.17
        ]
      }
    },
    {
      "type": "Feature",
      "properties": {
        "id": 60,
        "district_name": "Mugu",
        "province": "Karnali",
        "region": "Mountain",
        "census_2021_population": 55000,
        "area_sq_km": 3535.0,
        "population_density": 15.6,
        "urban": false,
        "headquarters": "Gamgadhi"
      },
      "geometry": {
        "type": "Point",
        "coordinates": [
          82.1,
          29.55
        ]
      }
    },
    {
      "type": "Feature",
      "properties": {
        "id": 61,
        "district_name": "Humla",
        "province": "Karnali",
        "region": "Mountain",
        "census_2021_population": 50000,
        "area_sq_km": 5655.0,
        "population_density": 8.8,
        "urban": false,
        "headquarters": "Simikot"
      },
      "geometry": {
        "type": "Point",
        "coordinates": [
          81.82,
          29.97
        ]
      }
    },
    {
      "type": "Feature",
      "properties": {
        "id": 62,
        "district_name": "Jumla",
        "province": "Karnali",
        "region": "Hill",
        "census_2021_population": 119000,
        "area_sq_km": 2531.0,
        "population_density": 47.0,
        "urban": false,
        "headquarters": "Khalanga"
      },
      "geometry": {
        "type": "Point",
        "coordinates": [
          82.18,
          29.28
        ]
      }
    },
    {
      "type": "Feature",
      "properties": {
        "id": 63,
        "district_name": "Kalikot",
        "province": "Karnali",
        "region": "Hill",
        "census_2021_population": 137000,
        "area_sq_km": 1741.0,
        "population_density": 78.7,
        "urban": false,
        "headquarters": "Manma"
      },
      "geometry": {
        "type": "Point",
        "coordinates": [
          81.68,
          29.1
        ]
      }
    },
    {
      "type": "Feature",
      "properties": {
        "id": 64,
        "district_name": "Dailekh",
        "province": "Karnali",
        "region": "Hill",
        "census_2021_population": 262000,
        "area_sq_km": 1502.0,
        "population_density": 174.4,
        "urban": false,
        "headquarters": "Narayan"
      },
      "geometry": {
        "type": "Point",
        "coordinates": [
          81.72,
          28.85
        ]
      }
    },
    {
      "type": "Feature",
      "properties": {
        "id": 65,
        "district_name": "Jajarkot",
        "province": "Karnali",
        "region": "Hill",
        "census_2021_population": 171000,
        "area_sq_km": 2230.0,
        "population_density": 76.7,
        "urban": false,
        "headquarters": "Khalanga"
      },
      "geometry": {
        "type": "Point",
        "coordinates": [
          82.2,
          28.7
        ]
      }
    },
    {
      "type": "Feature",
      "properties": {
        "id": 66,
        "district_name": "Rukum West",
        "province": "Karnali",
        "region": "Hill",
        "census_2021_population": 155000,
        "area_sq_km": 1213.0,
        "population_density": 127.8,
        "urban": false,
        "headquarters": "Musikot"
      },
      "geometry": {
        "type": "Point",
        "coordinates": [
          82.42,
          28.63
        ]
      }
    },
    {
      "type": "Feature",
      "properties": {
        "id": 67,
        "district_name": "Salyan",
        "province": "Karnali",
        "region": "Hill",
        "census_2021_population": 243000,
        "area_sq_km": 1567.0,
        "population_density": 155.1,
        "urban": false,
        "headquarters": "Salyan"
      },
      "geometry": {
        "type": "Point",
        "coordinates": [
          82.18,
          28.38
        ]
      }
    },
    {
      "type": "Feature",
      "properties": {
        "id": 68,
        "district_name": "Surkhet",
        "province": "Karnali",
        "region": "Hill",
        "census_2021_population": 405000,
        "area_sq_km": 2451.0,
        "population_density": 165.2,
        "urban": false,
        "headquarters": "Birendranagar"
      },
      "geometry": {
        "type": "Point",
        "coordinates": [
          81.63,
          28.6
        ]
      }
    },
    {
      "type": "Feature",
      "properties": {
        "id": 69,
        "district_name": "Bajura",
        "province": "Sudurpashchim",
        "region": "Mountain",
        "census_2021_population": 189000,
        "area_sq_km": 2188.0,
        "population_density": 86.4,
        "urban": false,
        "headquarters": "Martadi"
      },
      "geometry": {
        "type": "Point",
        "coordinates": [
          81.48,
          29.42
        ]
      }
    },
    {
      "type": "Feature",
      "properties": {
        "id": 70,
        "district_name": "Bajhang",
        "province": "Sudurpashchim",
        "region": "Mountain",
        "census_2021_population": 195000,
        "area_sq_km": 3422.0,
        "population_density": 57.0,
        "urban": false,
        "headquarters": "Chainpur"
      },
      "geometry": {
        "type": "Point",
        "coordinates": [
          81.2,
          29.53
        ]
      }
    },
    {
      "type": "Feature",
      "properties": {
        "id": 71,
        "district_name": "Darchula",
        "province": "Sudurpashchim",
        "region": "Mountain",
        "census_2021_population": 134000,
        "area_sq_km": 2322.0,
        "population_density": 57.7,
        "urban": false,
        "headquarters": "Darchula"
      },
      "geometry": {
        "type": "Point",
        "coordinates": [
          80.55,
          29.85
        ]
      }
    },
    {
      "type": "Feature",
      "properties": {
        "id": 72,
        "district_name": "Baitadi",
        "province": "Sudurpashchim",
        "region": "Hill",
        "census_2021_population": 251000,
        "area_sq_km": 1519.0,
        "population_density": 165.2,
        "urban": false,
        "headquarters": "Dasharathchand"
      },
      "geometry": {
        "type": "Point",
        "coordinates": [
          80.55,
          29.53
        ]
      }
    },
    {
      "type": "Feature",
      "properties": {
        "id": 73,
        "district_name": "Dadeldhura",
        "province": "Sudurpashchim",
        "region": "Hill",
        "census_2021_population": 143000,
        "area_sq_km": 1538.0,
        "population_density": 93.0,
        "urban": false,
        "headquarters": "Amargadhi"
      },
      "geometry": {
        "type": "Point",
        "coordinates": [
          80.58,
          29.3
        ]
      }
    },
    {
      "type": "Feature",
      "properties": {
        "id": 74,
        "district_name": "Doti",
        "province": "Sudurpashchim",
        "region": "Hill",
        "census_2021_population": 211000,
        "area_sq_km": 2025.0,
        "population_density": 104.2,
        "urban": false,
        "headquarters": "Shikhar"
      },
      "geometry": {
        "type": "Point",
        "coordinates": [
          80.93,
          29.27
        ]
      }
    },
    {
      "type": "Feature",
      "properties": {
        "id": 75,
        "district_name": "Achham",
        "province": "Sudurpashchim",
        "region": "Hill",
        "census_2021_population": 257000,
        "area_sq_km": 1692.0,
        "population_density": 151.9,
        "urban": false,
        "headquarters": "Mangalsen"
      },
      "geometry": {
        "type": "Point",
        "coordinates": [
          81.25,
          29.05
        ]
      }
    },
    {
      "type": "Feature",
      "properties": {
        "id": 76,
        "district_name": "Kailali",
        "province": "Sudurpashchim",
        "region": "Terai",
        "census_2021_population": 904000,
        "area_sq_km": 3235.0,
        "population_density": 279.4,
        "urban": true,
        "headquarters": "Dhangadi"
      },
      "geometry": {
        "type": "Point",
        "coordinates": [
          80.77,
          28.7
        ]
      }
    },
    {
      "type": "Feature",
      "properties": {
        "id": 77,
        "district_name": "Kanchanpur",
        "province": "Sudurpashchim",
        "region": "Terai",
        "census_2021_population": 527000,
        "area_sq_km": 1610.0,
        "population_density": 327.3,
        "urban": true,
        "headquarters": "Bhimdatta"
      },
      "geometry": {
        "type": "Point",
        "coordinates": [
          80.32,
          28.83
        ]
      }
    }
  ]
}